{
    "links": {
        "self": "http://www.neowsapp.com/rest/v1/neo/3841755?api_key=iIulBulltgU6a56xZRHN4H3l9WmuAYTsLGpBGhQ2"
    },
    "id": "3841755",
    "neo_reference_id": "3841755",
    "name": "(2019 JO2)",
    "designation": "2019 JO2",
    "nasa_jpl_url": "http://ssd.jpl.nasa.gov/sbdb.cgi?sstr=3841755",
    "absolute_magnitude_h": 25.7,
    "estimated_diameter": {
        "kilometers": {
            "estimated_diameter_min": 0.0192555078,
            "estimated_diameter_max": 0.0430566244
        },
        "meters": {
            "estimated_diameter_min": 19.2555078188,
            "estimated_diameter_max": 43.0566244241
        },
        "miles": {
            "estimated_diameter_min": 0.0119648141,
            "estimated_diameter_max": 0.0267541378
        },
        "feet": {
            "estimated_diameter_min": 63.1742402722,
            "estimated_diameter_max": 141.2618956756
        }
    },
    "is_potentially_hazardous_asteroid": false,
    "close_approach_data": [
        {
            "close_approach_date": "2019-05-12",
            "close_approach_date_full": "2019-May-12 05:08",
            "epoch_date_close_approach": 1557637680000,
            "relative_velocity": {
                "kilometers_per_second": "11.5474379567",
                "kilometers_per_hour": "41570.7766441366",
                "miles_per_hour": "25830.4639653525"
            },
            "miss_distance": {
                "astronomical": "0.0080773511",
                "lunar": "3.1420895779",
                "kilometers": "1208354.519802157",
                "miles": "750836.6818454866"
            },
            "orbiting_body": "Moon"
        },
        {
            "close_approach_date": "2019-05-12",
            "close_approach_date_full": "2019-May-12 09:53",
            "epoch_date_close_approach": 1557654780000,
            "relative_velocity": {
                "kilometers_per_second": "10.8417966004",
                "kilometers_per_hour": "39030.4677614627",
                "miles_per_hour": "24252.0148154489"
            },
            "miss_distance": {
                "astronomical": "0.0093562431",
                "lunar": "3.6395785659",
                "kilometers": "1399674.038962197",
                "miles": "869717.1184924386"
            },
            "orbiting_body": "Earth"
        }
    ],
    "orbital_data": {
        "orbit_id": "4",
        "orbit_determination_date": "2019-05-15 07:24:45",
        "first_observation_date": "2019-05-04",
        "last_observation_date": "2019-05-12",
        "data_arc_in_days": 8,
        "observations_used": 59,
        "orbit_uncertainty": "7",
        "minimum_orbit_intersection": ".0073828",
        "jupiter_tisserand_invariant": "3.454",
        "epoch_osculation": "2459000.5",
        "eccentricity": ".5611850771511822",
        "semi_major_axis": "2.17526233022625",
        "inclination": "7.378908803518572",
        "ascending_node_longitude": "227.3573587365154",
        "orbital_period": "1171.833435714558",
        "perihelion_distance": ".9545375716141717",
        "perihelion_argument": "35.95719475098173",
        "aphelion_distance": "3.395987088838329",
        "perihelion_time": "2458641.409051881402",
        "mean_anomaly": "110.3166519940334",
        "mean_motion": ".3072108962145118",
        "equinox": "J2000",
        "orbit_class": {
            "orbit_class_type": "APO",
            "orbit_class_description": "Near-Earth asteroid orbits which cross the Earth’s orbit similar to that of 1862 Apollo",
            "orbit_class_range": "a (semi-major axis) > 1.0 AU; q (perihelion) < 1.017 AU"
        }
    },
    "is_sentry_object": false
}